NORAD_CAT_ID,OBJECT_NAME,OBJECT_TYPE,EPOCH,MEAN_MOTION,ECCENTRICITY,INCLINATION,RA_OF_ASC_NODE,ARG_OF_PERICENTER,MEAN_ANOMALY,BSTAR,MEAN_MOTION_DOT,MEAN_MOTION_DDOT,TLE_LINE0,TLE_LINE1,TLE_LINE2,SEMIMAJOR_AXIS,PERIOD,APOGEE,PERIGEE,DECAYED
54089.0,STARLINK-5143,PAYLOAD,2023-02-28 12:36:25,15.08833707,0.0001857,53.2153,255.2604,88.8272,271.2933,-0.0001027,-1.922e-05,0.0,0 STARLINK-5143,1 54089U 22136AQ  23059.52529587 -.00001922  00000-0 -10270-3 0  9991,2 54089  53.2153 255.2604 0001857  88.8272 271.2933 15.08833707 20143,6917.9,95.438,541.049,538.48,0.0
54089.0,STARLINK-5143,PAYLOAD,2023-02-28 20:33:21,15.08829779,0.000122,53.2155,253.7721,95.9169,264.1963,-0.00017246,-3.031e-05,0.0,0 STARLINK-5143,1 54089U 22136AQ  23059.85649936 -.00003031  00000-0 -17246-3 0  9991,2 54089  53.2155 253.7721 0001220  95.9169 264.1963 15.08829779 20199,6917.912,95.438,540.621,538.933,0.0
54089.0,STARLINK-5143,PAYLOAD,2023-03-01 18:48:45,15.08843138,0.0001199,53.2157,249.6093,91.9983,268.1146,0.00019933,2.886e-05,0.0,0 STARLINK-5143,1 54089U 22136AQ  23060.78385857  .00002886  00000-0  19933-3 0  9994,2 54089  53.2157 249.6093 0001199  91.9983 268.1146 15.08843138 20802,6917.871,95.437,540.565,538.906,0.0
54089.0,STARLINK-5143,PAYLOAD,2023-03-01 20:24:08,15.08845619,0.0001184,53.2156,249.3118,93.045,267.0677,0.00024398,3.598e-05,0.0,0 STARLINK-5143,1 54089U 22136AQ  23060.85009780  .00003598  00000-0  24398-3 0  9992,2 54089  53.2156 249.3118 0001184  93.0450 267.0677 15.08845619 20344,6917.863,95.437,540.547,538.909,0.0
54089.0,STARLINK-5143,PAYLOAD,2023-03-02 18:39:33,15.0883806,0.0001159,53.2156,245.1489,90.461,269.6515,0.00029341,4.385e-05,0.0,0 STARLINK-5143,1 54089U 22136AQ  23061.77746574  .00004385  00000-0  29341-3 0  9991,2 54089  53.2156 245.1489 0001159  90.4610 269.6515 15.08838060 20486,6917.886,95.438,540.553,538.95,0.0
54089.0,STARLINK-5143,PAYLOAD,2023-03-03 12:08:47,15.08849185,0.0001209,53.2159,241.878,88.8166,271.2964,0.00020134,2.919e-05,0.0,0 STARLINK-5143,1 54089U 22136AQ  23062.50609983  .00002919  00000-0  20134-3 0  9997,2 54089  53.2159 241.8780 0001209  88.8166 271.2964 15.08849185 21061,6917.852,95.437,540.554,538.881,0.0
54089.0,STARLINK-5143,PAYLOAD,2023-03-03 20:05:42,15.08860505,0.0001213,53.2156,240.3908,88.1652,271.9479,0.00042002,6.407e-05,0.0,0 STARLINK-5143,1 54089U 22136AQ  23062.83729437  .00006407  00000-0  42002-3 0  9994,2 54089  53.2156 240.3908 0001213  88.1652 271.9479 15.08860505 20642,6917.818,95.436,540.522,538.844,0.0
54089.0,STARLINK-5143,PAYLOAD,2023-03-04 11:59:34,15.08843307,9.87e-05,53.2159,237.4173,92.1916,267.9189,0.00010905,1.448e-05,0.0,0 STARLINK-5143,1 54089U 22136AQ  23063.49970010  .00001448  00000-0  10905-3 0  9999,2 54089  53.2159 237.4173 0000987  92.1916 267.9189 15.08843307 21219,6917.87,95.437,540.418,539.052,0.0
54089.0,STARLINK-5143,PAYLOAD,2023-03-04 21:31:52,15.08850909,0.0001037,53.2159,235.633,89.7793,270.3318,0.00035581,5.381e-05,0.0,0 STARLINK-5143,1 54089U 22136AQ  23063.89713669  .00005381  00000-0  35581-3 0  9995,2 54089  53.2159 235.6330 0001037  89.7793 270.3318 15.08850909 20808,6917.847,95.437,540.429,538.995,0.0
54089.0,STARLINK-5143,PAYLOAD,2023-03-05 10:14:58,15.08842829,0.0001772,53.2157,233.2535,79.3651,280.7541,0.00033075,4.98e-05,0.0,0 STARLINK-5143,1 54089U 22136AQ  23064.42706052  .00004980  00000-0  33075-3 0  9993,2 54089  53.2157 233.2535 0001772  79.3651 280.7541 15.08842829 20884,6917.872,95.437,540.963,538.511,0.0
54089.0,STARLINK-5143,PAYLOAD,2023-03-05 18:11:53,15.08839349,0.0001105,53.2172,231.7703,95.4781,264.6337,7.1583e-05,8.52e-06,0.0,0 STARLINK-5143,1 54089U 22136AQ  23064.75826131  .00000852  00000-0  71583-4 0  9991,2 54089  53.2172 231.7703 0001105  95.4781 264.6337 15.08839349 21400,6917.882,95.438,540.512,538.983,0.0
54089.0,STARLINK-5143,PAYLOAD,2023-03-06 19:38:03,15.0885834,0.000101,53.2153,227.0095,79.7153,280.3953,0.00056773,8.764e-05,0.0,0 STARLINK-5143,1 54089U 22136AQ  23065.81809665  .00008764  00000-0  56773-3 0  9995,2 54089  53.2153 227.0095 0001010  79.7153 280.3953 15.08858340 21090,6917.824,95.436,540.388,538.991,0.0
54089.0,STARLINK-5143,PAYLOAD,2023-03-07 03:34:58,15.08834514,0.0001578,53.2151,225.5222,80.2728,279.8443,-0.0001152,-2.121e-05,0.0,0 STARLINK-5143,1 54089U 22136AQ  23066.14929261 -.00002121  00000-0 -11520-3 0  9991,2 54089  53.2151 225.5222 0001578  80.2728 279.8443 15.08834514 21619,6917.897,95.438,540.854,538.671,0.0
54089.0,STARLINK-5143,PAYLOAD,2023-03-07 11:31:55,15.08838432,0.0001462,53.2148,224.0359,84.4593,275.6566,5.0329e-05,5.13e-06,0.0,0 STARLINK-5143,1 54089U 22136AQ  23066.48050320  .00000513  00000-0  50329-4 0  9991,2 54089  53.2148 224.0359 0001462  84.4593 275.6566 15.08838432 21666,6917.885,95.438,540.762,538.739,0.0
54089.0,STARLINK-5143,PAYLOAD,2023-03-07 19:28:50,15.08854115,0.0001112,53.216,222.5492,84.126,275.9859,0.00032542,4.897e-05,0.0,0 STARLINK-5143,1 54089U 22136AQ  23066.81169646  .00004897  00000-0  32542-3 0  9995,2 54089  53.2160 222.5492 0001112  84.1260 275.9859 15.08854115 21711,6917.837,95.437,540.472,538.933,0.0
54089.0,STARLINK-5143,PAYLOAD,2023-03-08 03:25:46,15.08840369,9.91e-05,53.2158,221.0646,93.4273,266.6833,6.4071e-05,7.32e-06,0.0,0 STARLINK-5143,1 54089U 22136AQ  23067.14290105  .00000732  00000-0  64071-4 0  9994,2 54089  53.2158 221.0646 0000991  93.4273 266.6833 15.08840369 21764,6917.879,95.438,540.43,539.059,0.0
54089.0,STARLINK-5143,PAYLOAD,2023-03-08 16:08:51,15.08843075,0.0001538,53.2125,218.6834,94.3031,265.8137,0.00011129,1.484e-05,0.0,0 STARLINK-5143,1 54089U 22136AQ  23067.67282226  .00001484  00000-0  11129-3 0  9997,2 54089  53.2125 218.6834 0001538  94.3031 265.8137 15.08843075 21371,6917.871,95.437,540.8,538.672,0.0
54089.0,STARLINK-5143,PAYLOAD,2023-03-09 09:38:06,15.08841375,0.0001468,53.2134,215.4122,92.4313,267.6848,0.00023665,3.48e-05,0.0,0 STARLINK-5143,1 54089U 22136AQ  23068.40146523  .00003480  00000-0  23665-3 0  9994,2 54089  53.2134 215.4122 0001468  92.4313 267.6848 15.08841375 21954,6917.876,95.437,540.757,538.726,0.0
54089.0,STARLINK-5143,PAYLOAD,2023-03-10 15:50:26,15.08845356,0.0001591,53.2128,209.7621,93.7516,266.3658,0.00023368,3.434e-05,0.0,0 STARLINK-5143,1 54089U 22136AQ  23069.66002456  .00003434  00000-0  23368-3 0  9998,2 54089  53.2128 209.7621 0001591  93.7516 266.3658 15.08845356 22143,6917.864,95.437,540.83,538.628,0.0
54089.0,STARLINK-5143,PAYLOAD,2023-03-11 09:19:41,15.08835159,0.0001328,53.2159,206.4925,93.4644,266.65,9.2304e-06,-1.41e-06,0.0,0 STARLINK-5143,1 54089U 22136AQ  23070.38866985 -.00000141  00000-0  92304-5 0  9995,2 54089  53.2159 206.4925 0001328  93.4644 266.6500 15.08835159 22256,6917.895,95.438,540.679,538.841,0.0
54089.0,STARLINK-5143,PAYLOAD,2023-03-11 18:51:59,15.0884699,0.0001391,53.2168,204.7052,121.3742,238.7387,0.00016968,2.414e-05,0.0,0 STARLINK-5143,1 54089U 22136AQ  23070.78610418  .00002414  00000-0  16968-3 0  9991,2 54089  53.2168 204.7052 0001391 121.3742 238.7387 15.08846990 22313,6917.859,95.437,540.686,538.762,0.0
54089.0,STARLINK-5143,PAYLOAD,2023-03-12 09:10:28,15.08833204,8.69e-05,53.2154,202.0304,101.5253,258.5837,0.00010095,1.319e-05,0.0,0 STARLINK-5143,1 54089U 22136AQ  23071.38227264  .00001319  00000-0  10095-3 0  9999,2 54089  53.2154 202.0304 0000869 101.5253 258.5837 15.08833204 22409,6917.901,95.438,540.367,539.165,0.0
54089.0,STARLINK-5143,PAYLOAD,2023-03-12 18:42:46,15.08846227,0.0001037,53.2169,200.247,98.2789,261.8321,0.00028263,4.214e-05,0.0,0 STARLINK-5143,1 54089U 22136AQ  23071.77970662  .00004214  00000-0  28263-3 0  9992,2 54089  53.2169 200.2470 0001037  98.2789 261.8321 15.08846227 22463,6917.861,95.437,540.444,539.009,0.0
54089.0,STARLINK-5143,PAYLOAD,2023-03-13 09:01:15,15.08839429,0.0001282,53.2183,197.5728,97.1103,263.0035,6.2842e-05,7.12e-06,0.0,0 STARLINK-5143,1 54089U 22136AQ  23072.37587179  .00000712  00000-0  62842-4 0  9997,2 54089  53.2183 197.5728 0001282  97.1103 263.0035 15.08839429 22555,6917.882,95.438,540.634,538.86,0.0
54089.0,STARLINK-5143,PAYLOAD,2023-03-13 12:12:01,15.08840934,0.0001394,53.2173,196.9758,99.0671,261.0479,3.653e-05,2.94e-06,0.0,0 STARLINK-5143,1 54089U 22136AQ  23072.50834929  .00000294  00000-0  36530-4 0  9990,2 54089  53.2173 196.9758 0001394  99.0671 261.0479 15.08840934 22109,6917.878,95.437,540.707,538.778,0.0
54089.0,STARLINK-5143,PAYLOAD,2023-03-14 12:02:48,15.08842891,0.0001345,53.2175,192.5169,93.5253,266.5893,0.00011488,1.541e-05,0.0,0 STARLINK-5143,1 54089U 22136AQ  23073.50195135  .00001541  00000-0  11488-3 0  9990,2 54089  53.2175 192.5169 0001345  93.5253 266.5893 15.08842891 22722,6917.872,95.437,540.667,538.806,0.0
54089.0,STARLINK-5143,PAYLOAD,2023-03-15 11:53:34,15.08855008,0.0001861,53.2206,188.0589,104.6743,255.4455,0.00033761,5.091e-05,0.0,0 STARLINK-5143,1 54089U 22136AQ  23074.49554360  .00005091  00000-0  33761-3 0  9990,2 54089  53.2206 188.0589 0001861 104.6743 255.4455 15.08855008 22875,6917.835,95.437,540.987,538.412,0.0
54089.0,STARLINK-5143,PAYLOAD,2023-03-16 00:36:39,15.0885321,0.0001109,53.2178,185.6796,73.5796,286.5318,0.00035087,5.303e-05,0.0,0 STARLINK-5143,1 54089U 22136AQ  23075.02546036  .00005303  00000-0  35087-3 0  9990,2 54089  53.2178 185.6796 0001109  73.5796 286.5318 15.08853210 22958,6917.84,95.437,540.472,538.938,0.0
54089.0,STARLINK-5143,PAYLOAD,2023-03-16 11:44:23,15.08819427,0.0001415,53.2177,183.5978,80.4693,279.6459,-0.00032426,-5.442e-05,0.0,0 STARLINK-5143,1 54089U 22136AQ  23075.48916046 -.00005442  00000-0 -32426-3 0  9992,2 54089  53.2177 183.5978 0001415  80.4693 279.6459 15.08819427 23029,6917.943,95.439,540.787,538.829,0.0
54089.0,STARLINK-5143,PAYLOAD,2023-03-17 06:49:00,15.08841244,0.000196,53.2167,180.0305,83.5344,276.5871,-0.00054871,-9.011e-05,0.0,0 STARLINK-5143,1 54089U 22136AQ  23076.28403704 -.00009011  00000-0 -54871-3 0  9997,2 54089  53.2167 180.0305 0001960  83.5344 276.5871 15.08841244 23145,6917.877,95.437,541.097,538.386,0.0
